NVS-01 (IRNSS-1J)       
1 56759U 23076A   25333.81769604 -.00000314  00000+0  00000+0 0  9994
2 56759   2.6531 252.0710 0008400   4.7444 236.1005  1.00269443  9110
NVS-02 (IRNSS-1K)       
1 62850U 25020A   25333.22137078  .00000384  00000+0  28430-3 0  9990
2 62850  21.0171 332.5430 7348421  17.4684 358.2746  2.17581585  6625
