{
  "type": "FeatureCollection",
  "features": [
    {
      "type": "Feature",
      "properties": {
        "OBJECT_NAME": "NVS-01 (IRNSS-1J)",
        "OBJECT_ID": "2023-076A",
        "EPOCH": "2025-11-29T19:37:28.937856",
        "MEAN_MOTION": 1.00269443,
        "ECCENTRICITY": 0.00084,
        "INCLINATION": 2.6531,
        "RA_OF_ASC_NODE": 252.071,
        "ARG_OF_PERICENTER": 4.7444,
        "MEAN_ANOMALY": 236.1005,
        "EPHEMERIS_TYPE": 0,
        "CLASSIFICATION_TYPE": "U",
        "NORAD_CAT_ID": 56759,
        "ELEMENT_SET_NO": 999,
        "REV_AT_EPOCH": 911,
        "BSTAR": 0,
        "MEAN_MOTION_DOT": -3.14e-06,
        "MEAN_MOTION_DDOT": 0,
        "norad_id": 56759,
        "name": "NVS-01 (IRNSS-1J)",
        "group": "gnss",
        "longitude_deg": NaN,
        "latitude_deg": NaN,
        "alt_km": NaN,
        "orbit_class": "HEO",
        "timestamp": "2025-11-30T07:29:52.845124+00:00"
      },
      "geometry": {
        "type": "Point",
        "coordinates": [
          NaN,
          NaN
        ]
      }
    },
    {
      "type": "Feature",
      "properties": {
        "OBJECT_NAME": "NVS-02 (IRNSS-1K)",
        "OBJECT_ID": "2025-020A",
        "EPOCH": "2025-11-29T05:18:46.435392",
        "MEAN_MOTION": 2.17581585,
        "ECCENTRICITY": 0.73484217,
        "INCLINATION": 21.0171,
        "RA_OF_ASC_NODE": 332.543,
        "ARG_OF_PERICENTER": 17.4684,
        "MEAN_ANOMALY": 358.2746,
        "EPHEMERIS_TYPE": 0,
        "CLASSIFICATION_TYPE": "U",
        "NORAD_CAT_ID": 62850,
        "ELEMENT_SET_NO": 999,
        "REV_AT_EPOCH": 662,
        "BSTAR": 0.0002843021,
        "MEAN_MOTION_DOT": 3.84e-06,
        "MEAN_MOTION_DDOT": 0,
        "norad_id": 62850,
        "name": "NVS-02 (IRNSS-1K)",
        "group": "gnss",
        "longitude_deg": NaN,
        "latitude_deg": NaN,
        "alt_km": NaN,
        "orbit_class": "HEO",
        "timestamp": "2025-11-30T07:29:52.875226+00:00"
      },
      "geometry": {
        "type": "Point",
        "coordinates": [
          NaN,
          NaN
        ]
      }
    }
  ]
}